{
  "type": "FeatureCollection",
  "name": "BPDA_Neighborhoods",
  "crs": { "type": "name", "properties": { "name": "urn:ogc:def:crs:OGC:1.3:CRS84" } },
  "features": [
    {
      "type": "Feature",
      "properties": { "NEIGHBORHOOD": "Allston", "NEIGHBORHOOD_ID": 1 },
      "geometry": {
        "type": "Polygon",
        "coordinates": [[
          [-71.145, 42.345], [-71.125, 42.345], [-71.125, 42.365], [-71.145, 42.365], [-71.145, 42.345]
        ]]
      }
    },
    {
      "type": "Feature",
      "properties": { "NEIGHBORHOOD": "Back Bay", "NEIGHBORHOOD_ID": 2 },
      "geometry": {
        "type": "Polygon",
        "coordinates": [[
          [-71.085, 42.345], [-71.070, 42.345], [-71.070, 42.355], [-71.085, 42.355], [-71.085, 42.345]
        ]]
      }
    },
    {
      "type": "Feature",
      "properties": { "NEIGHBORHOOD": "Bay Village", "NEIGHBORHOOD_ID": 3 },
      "geometry": {
        "type": "Polygon",
        "coordinates": [[
          [-71.070, 42.345], [-71.065, 42.345], [-71.065, 42.350], [-71.070, 42.350], [-71.070, 42.345]
        ]]
      }
    },
    {
      "type": "Feature",
      "properties": { "NEIGHBORHOOD": "Beacon Hill", "NEIGHBORHOOD_ID": 4 },
      "geometry": {
        "type": "Polygon",
        "coordinates": [[
          [-71.070, 42.352], [-71.062, 42.352], [-71.062, 42.365], [-71.070, 42.365], [-71.070, 42.352]
        ]]
      }
    },
    {
      "type": "Feature",
      "properties": { "NEIGHBORHOOD": "Brighton", "NEIGHBORHOOD_ID": 5 },
      "geometry": {
        "type": "Polygon",
        "coordinates": [[
          [-71.170, 42.335], [-71.140, 42.335], [-71.140, 42.365], [-71.170, 42.365], [-71.170, 42.335]
        ]]
      }
    },
    {
      "type": "Feature",
      "properties": { "NEIGHBORHOOD": "Charlestown", "NEIGHBORHOOD_ID": 6 },
      "geometry": {
        "type": "Polygon",
        "coordinates": [[
          [-71.070, 42.370], [-71.045, 42.370], [-71.045, 42.385], [-71.070, 42.385], [-71.070, 42.370]
        ]]
      }
    },
    {
      "type": "Feature",
      "properties": { "NEIGHBORHOOD": "Chinatown", "NEIGHBORHOOD_ID": 7 },
      "geometry": {
        "type": "Polygon",
        "coordinates": [[
          [-71.065, 42.348], [-71.058, 42.348], [-71.058, 42.352], [-71.065, 42.352], [-71.065, 42.348]
        ]]
      }
    },
    {
      "type": "Feature",
      "properties": { "NEIGHBORHOOD": "Dorchester", "NEIGHBORHOOD_ID": 8 },
      "geometry": {
        "type": "Polygon",
        "coordinates": [[
          [-71.085, 42.275], [-71.040, 42.275], [-71.040, 42.325], [-71.085, 42.325], [-71.085, 42.275]
        ]]
      }
    },
    {
      "type": "Feature",
      "properties": { "NEIGHBORHOOD": "Downtown", "NEIGHBORHOOD_ID": 9 },
      "geometry": {
        "type": "Polygon",
        "coordinates": [[
          [-71.065, 42.350], [-71.050, 42.350], [-71.050, 42.365], [-71.065, 42.365], [-71.065, 42.350]
        ]]
      }
    },
    {
      "type": "Feature",
      "properties": { "NEIGHBORHOOD": "East Boston", "NEIGHBORHOOD_ID": 10 },
      "geometry": {
        "type": "Polygon",
        "coordinates": [[
          [-71.045, 42.365], [-71.005, 42.365], [-71.005, 42.390], [-71.045, 42.390], [-71.045, 42.365]
        ]]
      }
    },
    {
      "type": "Feature",
      "properties": { "NEIGHBORHOOD": "Fenway/Kenmore", "NEIGHBORHOOD_ID": 11 },
      "geometry": {
        "type": "Polygon",
        "coordinates": [[
          [-71.105, 42.335], [-71.085, 42.335], [-71.085, 42.350], [-71.105, 42.350], [-71.105, 42.335]
        ]]
      }
    },
    {
      "type": "Feature",
      "properties": { "NEIGHBORHOOD": "Hyde Park", "NEIGHBORHOOD_ID": 12 },
      "geometry": {
        "type": "Polygon",
        "coordinates": [[
          [-71.135, 42.250], [-71.105, 42.250], [-71.105, 42.280], [-71.135, 42.280], [-71.135, 42.250]
        ]]
      }
    },
    {
      "type": "Feature",
      "properties": { "NEIGHBORHOOD": "Jamaica Plain", "NEIGHBORHOOD_ID": 13 },
      "geometry": {
        "type": "Polygon",
        "coordinates": [[
          [-71.120, 42.305], [-71.090, 42.305], [-71.090, 42.330], [-71.120, 42.330], [-71.120, 42.305]
        ]]
      }
    },
    {
      "type": "Feature",
      "properties": { "NEIGHBORHOOD": "Leather District", "NEIGHBORHOOD_ID": 14 },
      "geometry": {
        "type": "Polygon",
        "coordinates": [[
          [-71.062, 42.348], [-71.058, 42.348], [-71.058, 42.352], [-71.062, 42.352], [-71.062, 42.348]
        ]]
      }
    },
    {
      "type": "Feature",
      "properties": { "NEIGHBORHOOD": "Longwood Medical Area", "NEIGHBORHOOD_ID": 15 },
      "geometry": {
        "type": "Polygon",
        "coordinates": [[
          [-71.105, 42.338], [-71.095, 42.338], [-71.095, 42.345], [-71.105, 42.345], [-71.105, 42.338]
        ]]
      }
    },
    {
      "type": "Feature",
      "properties": { "NEIGHBORHOOD": "Mattapan", "NEIGHBORHOOD_ID": 16 },
      "geometry": {
        "type": "Polygon",
        "coordinates": [[
          [-71.095, 42.260], [-71.070, 42.260], [-71.070, 42.285], [-71.095, 42.285], [-71.095, 42.260]
        ]]
      }
    },
    {
      "type": "Feature",
      "properties": { "NEIGHBORHOOD": "Mission Hill", "NEIGHBORHOOD_ID": 17 },
      "geometry": {
        "type": "Polygon",
        "coordinates": [[
          [-71.100, 42.330], [-71.090, 42.330], [-71.090, 42.340], [-71.100, 42.340], [-71.100, 42.330]
        ]]
      }
    },
    {
      "type": "Feature",
      "properties": { "NEIGHBORHOOD": "North End", "NEIGHBORHOOD_ID": 18 },
      "geometry": {
        "type": "Polygon",
        "coordinates": [[
          [-71.058, 42.362], [-71.050, 42.362], [-71.050, 42.368], [-71.058, 42.368], [-71.058, 42.362]
        ]]
      }
    },
    {
      "type": "Feature",
      "properties": { "NEIGHBORHOOD": "Roslindale", "NEIGHBORHOOD_ID": 19 },
      "geometry": {
        "type": "Polygon",
        "coordinates": [[
          [-71.140, 42.280], [-71.110, 42.280], [-71.110, 42.305], [-71.140, 42.305], [-71.140, 42.280]
        ]]
      }
    },
    {
      "type": "Feature",
      "properties": { "NEIGHBORHOOD": "Roxbury", "NEIGHBORHOOD_ID": 20 },
      "geometry": {
        "type": "Polygon",
        "coordinates": [[
          [-71.095, 42.320], [-71.075, 42.320], [-71.075, 42.340], [-71.095, 42.340], [-71.095, 42.320]
        ]]
      }
    },
    {
      "type": "Feature",
      "properties": { "NEIGHBORHOOD": "South Boston", "NEIGHBORHOOD_ID": 21 },
      "geometry": {
        "type": "Polygon",
        "coordinates": [[
          [-71.055, 42.335], [-71.030, 42.335], [-71.030, 42.355], [-71.055, 42.355], [-71.055, 42.335]
        ]]
      }
    },
    {
      "type": "Feature",
      "properties": { "NEIGHBORHOOD": "South Boston Waterfront", "NEIGHBORHOOD_ID": 22 },
      "geometry": {
        "type": "Polygon",
        "coordinates": [[
          [-71.040, 42.345], [-71.025, 42.345], [-71.025, 42.355], [-71.040, 42.355], [-71.040, 42.345]
        ]]
      }
    },
    {
      "type": "Feature",
      "properties": { "NEIGHBORHOOD": "South End", "NEIGHBORHOOD_ID": 23 },
      "geometry": {
        "type": "Polygon",
        "coordinates": [[
          [-71.078, 42.338], [-71.060, 42.338], [-71.060, 42.350], [-71.078, 42.350], [-71.078, 42.338]
        ]]
      }
    },
    {
      "type": "Feature",
      "properties": { "NEIGHBORHOOD": "West End", "NEIGHBORHOOD_ID": 24 },
      "geometry": {
        "type": "Polygon",
        "coordinates": [[
          [-71.070, 42.362], [-71.060, 42.362], [-71.060, 42.370], [-71.070, 42.370], [-71.070, 42.362]
        ]]
      }
    },
    {
      "type": "Feature",
      "properties": { "NEIGHBORHOOD": "West Roxbury", "NEIGHBORHOOD_ID": 25 },
      "geometry": {
        "type": "Polygon",
        "coordinates": [[
          [-71.160, 42.275], [-71.130, 42.275], [-71.130, 42.300], [-71.160, 42.300], [-71.160, 42.275]
        ]]
      }
    }
  ]
}